[{"OBJECT_NAME":"HULIANWANG DIGUI-15","OBJECT_ID":"2025-030E","EPOCH":"2026-03-09T21:45:22.811328","MEAN_MOTION":13.29338137,"ECCENTRICITY":7.31e-5,"INCLINATION":50.0013,"RA_OF_ASC_NODE":231.8332,"ARG_OF_PERICENTER":177.2814,"MEAN_ANOMALY":182.8062,"EPHEMERIS_TYPE":0,"CLASSIFICATION_TYPE":"U","NORAD_CAT_ID":62975,"ELEMENT_SET_NO":999,"REV_AT_EPOCH":5265,"BSTAR":7.288678e-5,"MEAN_MOTION_DOT":-9.0e-7,"MEAN_MOTION_DDOT":0},{"OBJECT_NAME":"FENGYUN 1C DEB","OBJECT_ID":"1999-025XF","EPOCH":"2026-03-09T07:33:49.754880","MEAN_MOTION":13.37072621,"ECCENTRICITY":0.03695713,"INCLINATION":98.6815,"RA_OF_ASC_NODE":204.4066,"ARG_OF_PERICENTER":241.9971,"MEAN_ANOMALY":144.7171,"EPHEMERIS_TYPE":0,"CLASSIFICATION_TYPE":"U","NORAD_CAT_ID":30246,"ELEMENT_SET_NO":999,"REV_AT_EPOCH":93297,"BSTAR":0.00060319349,"MEAN_MOTION_DOT":4.27e-6,"MEAN_MOTION_DDOT":0}]
